{
    "links": {
        "self": "http://www.neowsapp.com/rest/v1/neo/3824069?api_key=iIulBulltgU6a56xZRHN4H3l9WmuAYTsLGpBGhQ2"
    },
    "id": "3824069",
    "neo_reference_id": "3824069",
    "name": "(2018 JR1)",
    "designation": "2018 JR1",
    "nasa_jpl_url": "http://ssd.jpl.nasa.gov/sbdb.cgi?sstr=3824069",
    "absolute_magnitude_h": 25.6,
    "estimated_diameter": {
        "kilometers": {
            "estimated_diameter_min": 0.0201629919,
            "estimated_diameter_max": 0.0450858206
        },
        "meters": {
            "estimated_diameter_min": 20.1629919443,
            "estimated_diameter_max": 45.0858206172
        },
        "miles": {
            "estimated_diameter_min": 0.0125286985,
            "estimated_diameter_max": 0.0280150214
        },
        "feet": {
            "estimated_diameter_min": 66.1515504905,
            "estimated_diameter_max": 147.9193637137
        }
    },
    "is_potentially_hazardous_asteroid": false,
    "close_approach_data": [
        {
            "close_approach_date": "2018-05-03",
            "close_approach_date_full": "2018-May-03 09:52",
            "epoch_date_close_approach": 1525341120000,
            "relative_velocity": {
                "kilometers_per_second": "14.0248405902",
                "kilometers_per_hour": "50489.4261245958",
                "miles_per_hour": "31372.1659161412"
            },
            "miss_distance": {
                "astronomical": "0.0173230945",
                "lunar": "6.7386837605",
                "kilometers": "2591498.039008715",
                "miles": "1610282.211661667"
            },
            "orbiting_body": "Earth"
        }
    ],
    "orbital_data": {
        "orbit_id": "4",
        "orbit_determination_date": "2018-05-18 06:24:09",
        "first_observation_date": "2018-05-08",
        "last_observation_date": "2018-05-17",
        "data_arc_in_days": 9,
        "observations_used": 47,
        "orbit_uncertainty": "8",
        "minimum_orbit_intersection": ".0162849",
        "jupiter_tisserand_invariant": "4.032",
        "epoch_osculation": "2458248.5",
        "eccentricity": ".4135821579437976",
        "semi_major_axis": "1.693257326462758",
        "inclination": "22.60229425001147",
        "ascending_node_longitude": "223.7493972868833",
        "orbital_period": "804.7905570526478",
        "perihelion_distance": ".9929563074301448",
        "perihelion_argument": "333.1083990119833",
        "aphelion_distance": "2.39355834549537",
        "perihelion_time": "2458219.447613679725",
        "mean_anomaly": "12.99575272553155",
        "mean_motion": ".4473213519283993",
        "equinox": "J2000",
        "orbit_class": {
            "orbit_class_type": "APO",
            "orbit_class_description": "Near-Earth asteroid orbits which cross the Earth’s orbit similar to that of 1862 Apollo",
            "orbit_class_range": "a (semi-major axis) > 1.0 AU; q (perihelion) < 1.017 AU"
        }
    },
    "is_sentry_object": false
}